MEAN_MOTION;ECCENTRICITY;INCLINATION;RA_OF_ASC_NODE;ARG_OF_PERICENTER;MEAN_ANOMALY;BSTAR;MEAN_MOTION_DOT;MEAN_MOTION_DDOT;TYPE
14.3349383;0.0002869;98.5742;186.4075;47.1298;313.0127;3.1655E-5;4.4E-7;0;Weather
14.33493827;0.0002865;98.5742;186.4766;46.953;313.1894;3.1365E-5;4.3E-7;0;Weather
14.33494058;0.0002819;98.5743;187.4448;44.7685;315.3727;3.2708E-5;4.6E-7;0;Weather
14.33494108;0.0002805;98.5743;187.7215;44.1064;316.0343;3.2514E-5;4.6E-7;0;Weather
14.33494293;0.0002771;98.5743;188.413;42.6007;317.5392;3.3968E-5;5.0E-7;0;Weather
14.33494379;0.0002753;98.5743;188.7588;41.755;318.3844;3.5344E-5;5.4E-7;0;Weather
14.33494408;0.0002746;98.5744;188.8971;41.4907;318.6485;3.5282E-5;5.4E-7;0;Weather
14.33494476;0.0002731;98.5744;189.2429;40.8004;319.3385;3.5662E-5;5.5E-7;0;Weather
14.33494594;0.0002701;98.5744;189.8653;39.4291;320.7089;3.6175E-5;5.6E-7;0;Weather
14.33494765;0.000265;98.5745;191.0409;36.8913;323.2453;3.3557E-5;4.9E-7;0;Weather
14.33494937;0.0002584;98.5745;192.4241;33.8519;326.283;3.1923E-5;4.4E-7;0;Weather
14.33495119;0.0002521;98.5746;193.3231;31.5442;328.5894;3.3152E-5;4.8E-7;0;Weather
14.33495121;0.0002516;98.5746;193.3922;31.3126;328.8208;3.3225E-5;4.8E-7;0;Weather
14.33495299;0.0002461;98.5746;194.3604;28.8665;331.2655;3.2768E-5;4.7E-7;0;Weather
14.33495481;0.000241;98.5747;195.3286;26.3373;333.7933;3.4566E-5;5.2E-7;0;Weather
14.33495545;0.0002391;98.5747;195.6744;25.3994;334.7308;3.5127E-5;5.3E-7;0;Weather
14.33495655;0.0002339;98.5748;196.3659;23.4673;336.6618;3.4845E-5;5.2E-7;0;Weather
14.33495716;0.0002316;98.5748;196.9885;22.1129;338.0154;3.205E-5;4.5E-7;0;Weather
14.33495762;0.0002303;98.5748;197.3342;20.9104;339.2174;3.0097E-5;3.9E-7;0;Weather
14.33495804;0.0002265;98.5749;198.0258;19.3161;340.8109;2.6676E-5;3.0E-7;0;Weather
14.33495819;0.0002251;98.5749;198.3025;18.6016;341.5251;2.4465E-5;2.4E-7;0;Weather
14.3349582;0.0002247;98.5749;198.3716;18.4203;341.7063;2.4471E-5;2.4E-7;0;Weather
14.33495922;0.0002207;98.575;198.9941;16.9831;343.1427;2.5378E-5;2.6E-7;0;Weather
14.33495957;0.0002186;98.575;199.3398;16.0315;344.0938;2.4039E-5;2.2E-7;0;Weather
14.33495998;0.0002168;98.575;199.6165;15.1876;344.9373;2.3937E-5;2.2E-7;0;Weather
14.33496053;0.0002146;98.575;199.9623;14.338;345.7865;2.3843E-5;2.2E-7;0;Weather
14.33496098;0.0002124;98.575;200.3081;13.3316;346.7924;2.2929E-5;1.9E-7;0;Weather
14.33496178;0.0002065;98.5751;201.3455;10.4528;349.6699;2.0018E-5;1.1E-7;0;Weather
14.33496242;0.0002029;98.5752;201.8988;8.9063;351.2157;2.0338E-5;1.2E-7;0;Weather
14.33496277;0.0002003;98.5752;202.3137;7.7298;352.3917;1.8751E-5;8.0E-8;0;Weather
14.33496387;0.0001964;98.5753;202.9362;5.6963;354.4243;2.0599E-5;1.3E-7;0;Weather
14.33496485;0.0001942;98.5753;203.282;4.8104;355.3098;2.2759E-5;1.9E-7;0;Weather
14.33496659;0.0001881;98.5754;204.3194;1.4844;358.6346;2.6276E-5;2.9E-7;0;Weather
14.33496791;0.0001845;98.5755;204.8727;359.6641;0.4542;2.9986E-5;3.9E-7;0;Weather
14.33496865;0.0001821;98.5755;205.2877;358.2943;1.8235;3.0342E-5;4.0E-7;0;Weather
14.33497011;0.000177;98.5756;206.1177;355.4021;4.7147;2.9778E-5;3.8E-7;0;Weather
14.33497024;0.0001762;98.5756;206.256;354.8423;5.2743;2.9387E-5;3.7E-7;0;Weather
14.334971;0.0001721;98.5757;206.9476;352.5339;7.5819;2.8538E-5;3.5E-7;0;Weather
14.3349714;0.0001706;98.5757;207.2243;351.5051;8.6104;2.8109E-5;3.4E-7;0;Weather
14.33497138;0.0001703;98.5757;207.2935;351.2941;8.8213;2.7973E-5;3.3E-7;0;Weather
14.3349725;0.0001665;98.5758;207.916;349.2314;10.8834;3.0352E-5;4.0E-7;0;Weather
14.33497287;0.0001646;98.5758;208.2618;347.8615;12.2529;2.9452E-5;3.7E-7;0;Weather
14.3349729;0.0001636;98.5758;208.4001;347.3664;12.7479;2.875E-5;3.5E-7;0;Weather
14.33497432;0.0001588;98.5759;209.2301;344.1725;15.9409;2.761E-5;3.2E-7;0;Weather
14.33497565;0.0001576;98.5759;209.5759;342.6816;17.4315;3.2989E-5;4.7E-7;0;Weather
14.33497725;0.0001538;98.576;210.2676;339.8722;20.2401;3.6518E-5;5.7E-7;0;Weather
14.33497868;0.0001509;98.5761;210.8209;337.7533;22.3585;3.9498E-5;6.5E-7;0;Weather
14.33497975;0.0001487;98.5761;211.2359;335.9881;24.1234;4.0825E-5;6.9E-7;0;Weather
14.33498131;0.000145;98.5762;211.8585;333.2687;26.8423;4.139E-5;7.0E-7;0;Weather
14.33498206;0.0001436;98.5762;212.2043;331.5933;28.5173;4.044E-5;6.8E-7;0;Weather
14.33498321;0.0001394;98.5763;213.1035;327.7295;32.3804;3.4585E-5;5.2E-7;0;Weather
14.33498321;0.0001388;98.5763;213.2419;327.0534;33.0564;3.3794E-5;4.9E-7;0;Weather
14.33498462;0.000135;98.5764;214.1411;322.6782;37.4308;3.1667E-5;4.4E-7;0;Weather
14.33498462;0.0001348;98.5764;214.2102;322.3119;37.7971;3.1424E-5;4.3E-7;0;Weather
14.33498621;0.0001311;98.5765;215.1786;317.2233;42.8849;2.8585E-5;3.5E-7;0;Weather
14.33498775;0.0001271;98.5766;216.2162;311.4984;48.6091;2.6449E-5;2.9E-7;0;Weather
14.33498829;0.0001265;98.5766;216.4929;309.8158;50.2915;2.6872E-5;3.0E-7;0;Weather
14.33498975;0.0001232;98.5766;217.1846;305.8698;54.2372;2.8335E-5;3.4E-7;0;Weather
14.33499066;0.0001231;98.5767;217.5996;303.616;56.4906;2.8435E-5;3.5E-7;0;Weather
14.33499153;0.0001204;98.5767;218.1529;300.265;59.8415;2.7467E-5;3.2E-7;0;Weather
14.33499279;0.0001179;98.5768;219.1905;294.6634;65.4428;2.6388E-5;2.9E-7;0;Weather
14.33499356;0.0001149;98.5769;220.0207;289.5407;70.5653;2.4475E-5;2.4E-7;0;Weather
14.33499486;0.0001138;98.577;221.1276;282.5419;77.5638;2.3634E-5;2.1E-7;0;Weather
14.33499635;0.0001141;98.5771;222.1652;276.0616;84.0438;2.5674E-5;2.7E-7;0;Weather
14.33499671;0.0001147;98.5771;222.4419;274.3705;85.7348;2.5582E-5;2.7E-7;0;Weather
14.33499783;0.0001145;98.5773;223.1337;270.232;89.8733;2.7522E-5;3.2E-7;0;Weather
14.33499894;0.0001161;98.5773;223.5488;267.9544;92.1508;2.9962E-5;3.9E-7;0;Weather
14.33499969;0.000117;98.5774;224.1022;264.3273;95.7778;2.9252E-5;3.7E-7;0;Weather
14.33500028;0.000117;98.5774;224.5173;262.3414;97.7637;2.9298E-5;3.7E-7;0;Weather
14.3350007;0.0001192;98.5775;225.0707;258.7466;101.3584;2.7502E-5;3.2E-7;0;Weather
14.33500074;0.0001194;98.5775;225.1399;258.4401;101.6649;2.7581E-5;3.2E-7;0;Weather
14.33500107;0.0001192;98.5775;225.4858;256.9065;103.1987;2.6964E-5;3.1E-7;0;Weather
14.33500214;0.0001212;98.5776;226.3851;251.7405;108.3647;2.6737E-5;3.0E-7;0;Weather
14.33500226;0.0001216;98.5776;226.5234;251.0055;109.0998;2.6046E-5;2.8E-7;0;Weather
14.33500263;0.0001226;98.5777;227.0768;248.651;111.4543;2.3358E-5;2.1E-7;0;Weather
14.33500307;0.0001242;98.5777;227.4227;246.779;113.3264;2.3046E-5;2.0E-7;0;Weather
14.33500416;0.0001251;98.5778;228.1145;243.008;117.0976;2.307E-5;2.0E-7;0;Weather
14.33500508;0.0001273;98.5778;228.5988;240.5119;119.5939;2.4052E-5;2.2E-7;0;Weather
14.33500613;0.0001281;98.5779;229.0831;237.8452;122.2608;2.6242E-5;2.9E-7;0;Weather
14.33500788;0.0001332;98.578;230.0517;232.7886;127.3177;2.6553E-5;2.9E-7;0;Weather
14.33500908;0.0001371;98.5782;231.0203;228.218;131.8887;2.4279E-5;2.3E-7;0;Weather
14.33501007;0.0001415;98.5783;231.9889;223.6055;136.5017;2.2473E-5;1.8E-7;0;Weather
14.33501006;0.0001419;98.5783;232.0581;223.2951;136.8122;2.2368E-5;1.8E-7;0;Weather
14.33501105;0.0001469;98.5784;233.0267;218.9281;141.1798;2.0132E-5;1.2E-7;0;Weather
14.33501173;0.0001492;98.5785;233.3726;217.713;142.395;2.1187E-5;1.5E-7;0;Weather
14.33501189;0.0001498;98.5785;233.4418;217.4613;142.6467;2.1281E-5;1.5E-7;0;Weather
14.33501257;0.000153;98.5785;233.9953;214.9634;145.145;2.0773E-5;1.3E-7;0;Weather
14.3350134;0.0001559;98.5786;234.4796;213.1587;146.95;2.2299E-5;1.8E-7;0;Weather
14.33501434;0.0001585;98.5787;235.0331;210.6815;149.4277;2.4704E-5;2.4E-7;0;Weather
14.335015;0.0001605;98.5787;235.379;209.4948;150.6146;2.5777E-5;2.7E-7;0;Weather
14.33501598;0.0001638;98.5788;235.9326;207.198;152.9118;2.6185E-5;2.8E-7;0;Weather
14.33501614;0.0001642;98.5788;236.0018;206.9202;153.1898;2.6877E-5;3.0E-7;0;Weather
14.33501799;0.0001704;98.579;236.9704;203.4109;156.6998;2.8647E-5;3.5E-7;0;Weather
14.33501974;0.0001752;98.5791;238.0083;199.9009;160.2107;3.1525E-5;4.3E-7;0;Weather
14.33502029;0.0001769;98.5792;238.285;198.996;161.1159;3.2307E-5;4.5E-7;0;Weather
14.33502148;0.0001814;98.5793;238.9769;196.3738;163.7388;3.2271E-5;4.5E-7;0;Weather
14.33502221;0.0001839;98.5793;239.3921;195.0433;165.0697;3.2232E-5;4.5E-7;0;Weather
14.33502416;0.0001902;98.5795;240.4992;191.3655;168.7486;3.2705E-5;4.6E-7;0;Weather
14.33502696;0.000199;98.5797;241.8831;187.1998;172.9158;3.3755E-5;4.9E-7;0;Weather
14.33502706;0.0001993;98.5797;241.9523;186.993;173.1227;3.3734E-5;4.9E-7;0;Weather
14.33502805;0.000202;98.5797;242.4367;185.6451;174.4711;3.3552E-5;4.9E-7;0;Weather
14.33502934;0.0002052;98.5798;242.921;184.2017;175.9151;3.4765E-5;5.2E-7;0;Weather
14.33503054;0.0002081;98.5799;243.4054;182.806;177.3113;3.5794E-5;5.5E-7;0;Weather
14.33503131;0.0002113;98.5799;243.959;181.1214;178.9966;3.4182E-5;5.0E-7;0;Weather
14.33503186;0.0002132;98.58;244.2358;180.3946;179.7237;3.3903E-5;5.0E-7;0;Weather
14.3350335;0.0002179;98.5801;244.9278;178.547;181.5721;3.3675E-5;4.9E-7;0;Weather
14.33503449;0.00022;98.5801;245.2738;177.7276;182.3919;3.461E-5;5.2E-7;0;Weather
14.33503615;0.0002233;98.5802;245.8274;176.0627;184.0576;3.5342E-5;5.4E-7;0;Weather
14.33503764;0.0002267;98.5802;246.381;174.6052;185.5158;3.7181E-5;5.9E-7;0;Weather
14.3350394;0.0002336;98.5804;247.419;171.7807;188.3416;3.4948E-5;5.3E-7;0;Weather
14.33504006;0.0002363;98.5804;247.9034;170.7062;189.4167;3.2838E-5;4.7E-7;0;Weather
14.3350416;0.0002423;98.5806;248.8723;168.2789;191.8452;2.9911E-5;3.9E-7;0;Weather
14.33504267;0.0002485;98.5807;249.9103;165.5006;194.625;2.7361E-5;3.2E-7;0;Weather
14.33504267;0.0002485;98.5807;249.9103;165.5006;194.625;2.7361E-5;3.2E-7;0;Weather
14.33504412;0.0002546;98.5809;250.8791;163.135;196.9919;2.7416E-5;3.2E-7;0;Weather
14.33504516;0.0002571;98.5809;251.3635;162.1027;198.0248;2.8679E-5;3.5E-7;0;Weather
14.33504608;0.0002604;98.581;251.848;160.8193;199.309;2.9202E-5;3.7E-7;0;Weather
14.33504797;0.0002655;98.5812;252.8168;158.3791;201.7506;3.2379E-5;4.5E-7;0;Weather
14.3350481;0.0002658;98.5811;252.886;158.1847;201.9451;3.2866E-5;4.7E-7;0;Weather
